H1 CPF  1  MCC 2022  8 25 15  7371 larets
H2  0304206 5557    27944 2022 08 24 23 45 00 2022 08 29 23 57 00   180 1 1  0 0 0
H9
10 0 59819 16380.000000 0      -701401.728      -737121.895      6971031.528
10 0 59819 16560.000000 0     -1777237.140        89485.369      6817826.604
10 0 59819 16740.000000 0     -2766271.377       939936.587      6414264.541
10 0 59819 16920.000000 0     -3632283.408      1780479.840      5775202.921
10 0 59819 17100.000000 0     -4344431.503      2576851.190      4924127.352
10 0 59819 17280.000000 0     -4878380.831      3295682.524      3892306.320
10 0 59819 17460.000000 0     -5217165.341      3905911.637      2717648.889
10 0 59819 17640.000000 0     -5351745.597      4380133.591      1443305.168
10 0 59819 17820.000000 0     -5281237.614      4695830.717       116054.245
10 0 59819 18000.000000 0     -5012796.037      4836411.739     -1215456.317
10 0 59819 18180.000000 0     -4561161.060      4792010.295     -2502541.104
10 0 59819 18360.000000 0     -3947889.207      4559998.728     -3698296.574
10 0 59819 18540.000000 0     -3200316.665      4145191.967     -4759320.415
10 0 59819 18720.000000 0     -2350319.950      3559745.496     -5647257.424
10 0 59819 18900.000000 0     -1432946.684      2822767.305     -6330126.657
10 0 59819 19080.000000 0      -484973.887      1959663.172     -6783401.352
10 0 59819 19260.000000 0       456545.296      1001246.365     -6990812.759
10 0 59819 19440.000000 0      1355691.831       -17349.244     -6944876.999
10 0 59819 19620.000000 0      2179013.190     -1057923.992     -6647143.182
10 0 59819 19800.000000 0      2896736.433     -2080601.742     -6108155.318
10 0 59819 19980.000000 0      3483831.678     -3045314.615     -5347134.335
10 0 59819 20160.000000 0      3920899.574     -3913352.062     -4391375.807
10 0 59819 20340.000000 0      4194843.205     -4648917.954     -3275351.158
10 0 59819 20520.000000 0      4299297.457     -5220630.910     -2039536.816
10 0 59819 20700.000000 0      4234793.797     -5602908.394      -728986.684
10 0 59819 20880.000000 0      4008634.733     -5777154.821       608312.979
10 0 59819 21060.000000 0      3634476.461     -5732682.466      1923238.907
10 0 59819 21240.000000 0      3131634.755     -5467306.902      3167398.452
10 0 59819 21420.000000 0      2524144.984     -4987578.236      4294975.784
10 0 59819 21600.000000 0      1839632.839     -4308638.788      5264470.992
10 0 59819 21780.000000 0      1108055.948     -3453713.997      6040258.138
10 0 59819 21960.000000 0       360378.778     -2453264.001      6593898.651
10 0 59819 22140.000000 0      -372752.655     -1343843.617      6905159.884
10 0 59819 22320.000000 0     -1062273.418      -166727.248      6962723.317
10 0 59819 22500.000000 0     -1681855.672      1033654.921      6764572.640
10 0 59819 22680.000000 0     -2208918.433      2211412.363      6318050.074
10 0 59819 22860.000000 0     -2625456.437      3320961.581      5639585.438
10 0 59819 23040.000000 0     -2918661.629      4318807.842      4754106.425
10 0 59819 23220.000000 0     -3081319.113      5165279.120      3694141.245
10 0 59819 23400.000000 0     -3111959.257      5826142.728      2498630.064
10 0 59819 23580.000000 0     -3014757.318      6274027.042      1211481.451
10 0 59819 23760.000000 0     -2799186.251      6489579.638      -120069.015
10 0 59819 23940.000000 0     -2479439.910      6462306.930     -1447234.531
10 0 59819 24120.000000 0     -2073656.712      6191045.444     -2721516.779
10 0 59819 24300.000000 0     -1602980.060      5684031.189     -3896513.715
10 0 59819 24480.000000 0     -1090518.222      4958588.372     -4929605.691
10 0 59819 24660.000000 0      -560260.736      4040466.424     -5783467.061
10 0 59819 24840.000000 0       -35999.808      2962867.136     -6427356.354
10 0 59819 25020.000000 0       459697.314      1765204.483     -6838150.142
10 0 59819 25200.000000 0       906420.671       491657.993     -7001098.775
10 0 59819 25380.000000 0      1286725.666      -810429.637     -6910304.711
10 0 59819 25560.000000 0      1586792.381     -2092265.954     -6568916.524
10 0 59819 25740.000000 0      1796918.656     -3305381.537     -5989041.280
10 0 59819 25920.000000 0      1911836.575     -4403425.127     -5191380.425
10 0 59819 26100.000000 0      1930838.962     -5343933.166     -4204571.796
10 0 59819 26280.000000 0      1857709.386     -6090000.789     -3064244.094
10 0 59819 26460.000000 0      1700452.309     -6611796.404     -1811798.289
10 0 59819 26640.000000 0      1470829.743     -6887839.513      -492935.818
10 0 59819 26820.000000 0      1183722.654     -6905968.723       844017.628
10 0 59819 27000.000000 0       856345.081     -6663935.018      2149925.787
10 0 59819 27180.000000 0       507349.864     -6169580.580      3376713.698
10 0 59819 27360.000000 0       155872.589     -5440579.725      4479205.297
10 0 59819 27540.000000 0      -179434.914     -4503764.454      5416834.109
10 0 59819 27720.000000 0      -481326.437     -3394073.250      6155160.421
10 0 59819 27900.000000 0      -734792.087     -2153175.090      6667134.714
10 0 59819 28080.000000 0      -927761.016      -827843.533      6934060.589
10 0 59819 28260.000000 0     -1051647.792       531844.574      6946248.533
10 0 59819 28440.000000 0     -1101722.426      1874428.615      6703346.036
10 0 59819 28620.000000 0     -1077287.571      3149029.850      6214335.863
10 0 59819 28800.000000 0      -981660.601      4307296.367      5497207.655
10 0 59819 28980.000000 0      -821962.644      5305262.482      4578310.520
10 0 59819 29160.000000 0      -608723.327      6105056.829      3491399.795
10 0 59819 29340.000000 0      -355318.364      6676385.642      2276403.072
10 0 59819 29520.000000 0       -77266.200      6997733.974       977939.951
10 0 59819 29700.000000 0       208589.676      7057206.874      -356354.931
10 0 59819 29880.000000 0       484965.352      6852973.817     -1677624.337
10 0 59819 30060.000000 0       735038.141      6393290.787     -2937622.321
10 0 59819 30240.000000 0       943315.599      5696108.426     -4090499.023
10 0 59819 30420.000000 0      1096434.724      4788299.340     -5094465.437
10 0 59819 30600.000000 0      1183852.483      3704548.485     -5913273.237
10 0 59819 30780.000000 0      1198395.596      2485971.716     -6517460.965
10 0 59819 30960.000000 0      1136647.908      1178529.190     -6885337.183
10 0 59819 31140.000000 0       999164.463      -168696.537     -7003687.066
10 0 59819 31320.000000 0       790506.519     -1505304.554     -6868200.767
10 0 59819 31500.000000 0       519095.901     -2781406.761     -6483616.355
10 0 59819 31680.000000 0       196894.640     -3949437.501     -5863587.901
10 0 59819 31860.000000 0      -161086.170     -4965905.568     -5030268.464
10 0 59819 32040.000000 0      -537432.344     -5793026.773     -4013602.217
10 0 59819 32220.000000 0      -913110.396     -6400182.248     -2850331.415
10 0 59819 32400.000000 0     -1268359.443     -6765135.239     -1582729.301
10 0 59819 32580.000000 0     -1583652.382     -6874943.404      -257089.028
10 0 59819 32760.000000 0     -1840678.609     -6726504.839      1077983.783
10 0 59819 32940.000000 0     -2023297.739     -6326696.105      2373401.374
10 0 59819 33120.000000 0     -2118410.702     -5692085.227      3581465.449
10 0 59819 33300.000000 0     -2116696.297     -4848228.220      4657688.464
10 0 59819 33480.000000 0     -2013173.771     -3828592.301      5562476.538
10 0 59819 33660.000000 0     -1807566.437     -2673165.307      6262607.394
10 0 59819 33840.000000 0     -1504444.586     -1426820.878      6732442.670
10 0 59819 34020.000000 0     -1113145.894      -137526.189      6954840.815
10 0 59819 34200.000000 0      -647483.650      1145538.653      6921750.736
10 0 59819 34380.000000 0      -125249.378      2373875.191      6634481.300
10 0 59819 34560.000000 0       432476.767      3501514.819      6103641.989
10 0 59819 34740.000000 0      1002179.351      4486755.301      5348756.740
10 0 59819 34920.000000 0      1558894.199      5293729.801      4397561.183
10 0 59819 35100.000000 0      2077292.103      5893749.249      3284997.466
10 0 59819 35280.000000 0      2532816.583      6266365.796      2051937.003
10 0 59819 35460.000000 0      2902820.865      6400107.548       743656.233
10 0 59819 35640.000000 0      3167643.129      6292833.332      -591867.178
10 0 59819 35820.000000 0      3311566.030      5951697.248     -1905757.357
10 0 59819 36000.000000 0      3323615.015      5392730.423     -3150066.509
10 0 59819 36180.000000 0      3198153.908      4640064.301     -4279546.722
10 0 59819 36360.000000 0      2935247.774      3724840.514     -5253287.249
10 0 59819 36540.000000 0      2540783.460      2683877.329     -6036154.786
10 0 59819 36720.000000 0      2026351.384      1558159.312     -6599995.381
10 0 59819 36900.000000 0      1408898.050       391220.216     -6924568.330
10 0 59819 37080.000000 0       710169.165      -772514.626     -6998203.989
10 0 59819 37260.000000 0       -44043.587     -1889377.165     -6818182.712
10 0 59819 37440.000000 0      -824825.610     -2918045.976     -6390830.163
10 0 59819 37620.000000 0     -1601211.224     -3821040.954     -5731335.929
10 0 59819 37800.000000 0     -2341376.015     -4566082.287     -4863283.855
10 0 59819 37980.000000 0     -3013917.258     -5127272.711     -3817897.239
10 0 59819 38160.000000 0     -3589178.852     -5486054.656     -2632994.449
10 0 59819 38340.000000 0     -4040562.406     -5631893.535     -1351676.065
10 0 59819 38520.000000 0     -4345763.912     -5562648.227       -20775.358
10 0 59819 38700.000000 0     -4487865.627     -5284596.263      1310876.503
10 0 59819 38880.000000 0     -4456219.264     -4812100.026      2594296.982
10 0 59819 39060.000000 0     -4247066.201     -4166922.069      3782222.225
10 0 59819 39240.000000 0     -3863860.338     -3377228.160      4830909.234
99
